OBJECT_NAME,OBJECT_ID,EPOCH,MEAN_MOTION,ECCENTRICITY,INCLINATION,RA_OF_ASC_NODE,ARG_OF_PERICENTER,MEAN_ANOMALY,EPHEMERIS_TYPE,CLASSIFICATION_TYPE,NORAD_CAT_ID,ELEMENT_SET_NO,REV_AT_EPOCH,BSTAR,MEAN_MOTION_DOT,MEAN_MOTION_DDOT
PACE-1,2021-059AG,2026-06-05T11:49:11.428896,15.77832820,.00009943,97.6772,353.3326,9.7310,350.3975,0,U,48909,999,27595,.46410151E-3,.78298E-3,0
YAM-3,2021-059AN,2026-06-07T05:52:11.051040,15.48332956,.000587,97.6995,344.5523,44.4418,315.7301,0,U,48915,999,27545,.2462E-3,.12928E-3,0
FARADAY_PHOENIX,2021-059AX,2026-06-06T11:50:17.798784,15.75765489,.0002679,97.6829,354.3538,5.5188,354.6105,0,U,48924,999,27597,.93491E-3,.145325E-2,0
DEMO8 (TENZING),2021-059CA,2026-06-07T06:22:39.363168,15.54616927,.0007079,97.7036,350.9325,32.4559,327.7128,0,U,48951,999,27576,.32673E-3,.21542E-3,0
NAPA-2,2021-059CN,2026-06-07T05:39:21.170016,15.94687311,.0002358,97.6748,356.0209,257.4816,102.6195,0,U,48963,999,27622,.68299E-3,.258058E-2,.2799E-4
FENGYUN 3E,2021-062A,2026-06-07T13:08:43.251648,14.19904672,.0002712,98.7496,162.0636,100.9197,259.2284,0,U,49008,999,25521,.16264E-3,.301E-5,0
ISS (NAUKA),2021-066A,2026-06-07T07:42:05.449824,15.49651481,.0006964,51.6340,348.9333,143.6076,216.5387,0,U,49044,999,57024,.16703E-3,.8977E-4,0
STARLINK-3100,2021-082Q,2026-06-07T11:50:47.286240,14.98325022,.0003024,70.0005,68.0208,270.9557,89.1255,0,U,49144,999,25943,.11875E-3,.1324E-4,0
CUTE,2021-088D,2026-06-07T06:06:13.737024,15.90125495,.0007551,97.4168,256.6103,250.3246,109.7212,0,U,49263,999,26097,.71982E-3,.215241E-2,.18946E-4
2021-091B,2021-091B,2026-06-07T12:07:31.687104,15.18507641,.0015092,97.4483,346.2274,75.9857,284.3054,0,U,49316,999,25751,.19245E-3,.3913E-4,0
SDGSAT 1,2021-100A,2026-06-07T11:41:30.988608,15.19878592,.0007308,97.2637,205.7968,339.5624,20.5318,0,U,49387,999,25444,.11302E-3,.2361E-4,0
TEIKYOSAT-4 (OORURI),2021-102B,2026-06-06T15:31:34.160160,15.09469967,.0011232,97.3670,187.5400,336.8376,23.2346,0,U,49396,999,25113,.12987E-3,.2021E-4,0
Z-SAT,2021-102E,2026-06-07T12:13:37.516800,15.18196623,.0014893,97.3330,194.1267,282.8502,77.1068,0,U,49399,999,25197,.32321E-3,.6562E-4,0
HIBARI,2021-102F,2026-06-07T09:39:06.585120,15.31533604,.0010427,97.3246,204.4187,228.1637,131.8715,0,U,49400,999,25269,.378E-3,.11457E-3,0
KOSEN-1,2021-102H,2026-06-06T15:43:28.600032,15.26688334,.0012264,97.3192,200.0180,240.6044,119.3971,0,U,49402,999,25241,.34215E-3,.8931E-4,0
GLOBAL-14,2021-106A,2026-06-07T05:30:46.800576,15.50106555,.0017291,42.0052,350.2362,311.1284,48.8067,0,U,49469,999,25658,.47506E-3,.27368E-3,0
GAOFEN-3 02,2021-109A,2026-06-07T13:03:32.978016,14.42215923,.0003556,98.4091,166.7781,38.7571,321.3873,0,U,49495,999,23892,.22255E-4,.3E-6,0
GLOBAL-12,2021-115BA,2026-06-07T02:24:26.496288,15.52953568,.0003462,53.1947,93.0182,48.1122,312.0184,0,U,49772,999,25433,.55596E-3,.34905E-3,0
GLOBAL-13,2021-115BB,2026-06-07T03:55:03.757152,15.45651432,.0004225,53.1972,102.2250,85.3738,274.7752,0,U,49773,999,25421,.4246E-3,.20425E-3,0
GLOBAL-17,2021-120A,2026-06-05T04:23:50.226144,15.51596573,.00134358,41.9945,120.7885,176.8252,183.2680,0,U,49949,999,25303,.38490008E-3,.23266E-3,0
GLOBAL-16,2021-120B,2026-06-07T04:17:19.711104,15.49697669,.0011718,41.9946,112.4557,182.9262,177.1515,0,U,49950,999,25329,.46399E-3,.26246E-3,0
XW-3 (CAS-9),2021-131B,2026-06-07T13:03:34.822656,14.41349209,.0005196,98.4975,250.9864,118.6378,241.5334,0,U,50466,999,23372,.20425E-3,.617E-5,0
ION SCV-004,2022-002K,2026-06-07T11:49:05.755008,15.30356596,.0008203,97.2837,216.3336,39.9860,320.1984,0,U,50993,999,24381,.20675E-3,.6E-4,0
ETV-A1,2022-002CE,2026-06-07T11:10:34.039200,15.40479830,.0005603,97.2877,224.8003,37.3470,322.8165,0,U,51060,999,24434,.28791E-3,.11596E-3,0
BRO-5,2022-002CF,2026-06-07T11:37:32.425248,15.46832900,.0004522,97.2995,232.0713,14.4444,345.6934,0,U,51061,999,24475,.59199E-3,.29705E-3,0
LUDI TANCE 1-01A (L-SAR 01A),2022-007A,2026-06-07T18:27:53.176608,14.88410703,.0001573,97.8103,166.3233,90.5194,269.6203,0,U,51284,999,23707,.69357E-4,.589E-5,0
LUDI TANCE 1-01B (L-SAR 01B),2022-018A,2026-06-07T12:49:01.293600,14.88424687,.0001597,97.8109,166.0870,94.5155,265.6244,0,U,51822,999,23227,.83383E-4,.719E-5,0
JILIN-1 GAOFEN 03D15,2022-019R,2026-06-05T22:08:09.218688,16.31769192,.0012717,97.3560,254.9435,264.8257,95.1587,0,U,51839,999,23834,.9485E-3,.4986191E-1,.24754E-5
