PACE-1                  
1 48909U 21059AG  26156.49249339  .00078298  00000+0  46410-3 0  9991
2 48909  97.6772 353.3326 0000994   9.7310 350.3975 15.77832820275950
YAM-3                   
1 48915U 21059AN  26158.24457235  .00012928  00000+0  24620-3 0  9996
2 48915  97.6995 344.5523 0005870  44.4418 315.7301 15.48332956275454
FARADAY_PHOENIX         
1 48924U 21059AX  26157.49326156  .00145325  00000+0  93491-3 0  9999
2 48924  97.6829 354.3538 0002679   5.5188 354.6105 15.75765489275973
DEMO8 (TENZING)         
1 48951U 21059CA  26158.26573337  .00021542  00000+0  32673-3 0  9999
2 48951  97.7036 350.9325 0007079  32.4559 327.7128 15.54616927275762
NAPA-2                  
1 48963U 21059CN  26158.23566169  .00258058  27990-4  68299-3 0  9993
2 48963  97.6748 356.0209 0002358 257.4816 102.6195 15.94687311276227
FENGYUN 3E              
1 49008U 21062A   26158.54772282  .00000301  00000+0  16264-3 0  9996
2 49008  98.7496 162.0636 0002712 100.9197 259.2284 14.19904672255219
ISS (NAUKA)             
1 49044U 21066A   26158.32089641  .00008977  00000+0  16703-3 0  9991
2 49044  51.6340 348.9333 0006964 143.6076 216.5387 15.49651481570241
STARLINK-3100           
1 49144U 21082Q   26158.49360285  .00001324  00000+0  11875-3 0  9998
2 49144  70.0005  68.0208 0003024 270.9557  89.1255 14.98325022259433
CUTE                    
1 49263U 21088D   26158.25432566  .00215241  18946-4  71982-3 0  9995
2 49263  97.4168 256.6103 0007551 250.3246 109.7212 15.90125495260971
2021-091B               
1 49316U 21091B   26158.50522786  .00003913  00000+0  19245-3 0  9992
2 49316  97.4483 346.2274 0015092  75.9857 284.3054 15.18507641257510
SDGSAT 1                
1 49387U 21100A   26158.48716422  .00002361  00000+0  11302-3 0  9992
2 49387  97.2637 205.7968 0007308 339.5624  20.5318 15.19878592254447
TEIKYOSAT-4 (OORURI)    
1 49396U 21102B   26157.64692315  .00002021  00000+0  12987-3 0  9998
2 49396  97.3670 187.5400 0011232 336.8376  23.2346 15.09469967251133
Z-SAT                   
1 49399U 21102E   26158.50946200  .00006562  00000+0  32321-3 0  9990
2 49399  97.3330 194.1267 0014893 282.8502  77.1068 15.18196623251978
HIBARI                  
1 49400U 21102F   26158.40215955  .00011457  00000+0  37800-3 0  9994
2 49400  97.3246 204.4187 0010427 228.1637 131.8715 15.31533604252690
KOSEN-1                 
1 49402U 21102H   26157.65519213  .00008931  00000+0  34215-3 0  9996
2 49402  97.3192 200.0180 0012264 240.6044 119.3971 15.26688334252419
GLOBAL-14               
1 49469U 21106A   26158.22970834  .00027368  00000+0  47506-3 0  9999
2 49469  42.0052 350.2362 0017291 311.1284  48.8067 15.50106555256580
GAOFEN-3 02             
1 49495U 21109A   26158.54413169  .00000030  00000+0  22255-4 0  9991
2 49495  98.4091 166.7781 0003556  38.7571 321.3873 14.42215923238924
GLOBAL-12               
1 49772U 21115BA  26158.10030667  .00034905  00000+0  55596-3 0  9997
2 49772  53.1947  93.0182 0003462  48.1122 312.0184 15.52953568254331
GLOBAL-13               
1 49773U 21115BB  26158.16323793  .00020425  00000+0  42460-3 0  9997
2 49773  53.1972 102.2250 0004225  85.3738 274.7752 15.45651432254212
GLOBAL-17               
1 49949U 21120A   26156.18322021  .00023266  00000+0  38490-3 0  9995
2 49949  41.9945 120.7885 0013435 176.8252 183.2680 15.51596573253035
GLOBAL-16               
1 49950U 21120B   26158.17870036  .00026246  00000+0  46399-3 0  9990
2 49950  41.9946 112.4557 0011718 182.9262 177.1515 15.49697669253295
XW-3 (CAS-9)            
1 50466U 21131B   26158.54415304  .00000617  00000+0  20425-3 0  9996
2 50466  98.4975 250.9864 0005196 118.6378 241.5334 14.41349209233720
ION SCV-004             
1 50993U 22002K   26158.49242772  .00006000  00000+0  20675-3 0  9999
2 50993  97.2837 216.3336 0008203  39.9860 320.1984 15.30356596243814
ETV-A1                  
1 51060U 22002CE  26158.46567175  .00011596  00000+0  28791-3 0  9992
2 51060  97.2877 224.8003 0005603  37.3470 322.8165 15.40479830244346
BRO-5                   
1 51061U 22002CF  26158.48440307  .00029705  00000+0  59199-3 0  9999
2 51061  97.2995 232.0713 0004522  14.4444 345.6934 15.46832900244752
LUDI TANCE 1-01A (L-SA*)
1 51284U 22007A   26158.76936547  .00000589  00000+0  69357-4 0  9995
2 51284  97.8103 166.3233 0001573  90.5194 269.6203 14.88410703237071
LUDI TANCE 1-01B (L-SA*)
1 51822U 22018A   26158.53404275  .00000719  00000+0  83383-4 0  9998
2 51822  97.8109 166.0870 0001597  94.5155 265.6244 14.88424687232270
JILIN-1 GAOFEN 03D15    
1 51839U 22019R   26156.92232892  .04986191  24754-5  94850-3 0  9991
2 51839  97.3560 254.9435 0012717 264.8257  95.1587 16.31769192238342
